satname,norad_id,inclination_deg,eccentricity,mean_motion_rev_per_day,perigee_km,apogee_km,l1,l2
STARLINK-1278,45408,53.0446,0.0003475,15.6048107,383.91585894460786,388.6171193695709,1 45408U 20019BA  26093.83335647  .00183462  00000+0  21445-2 0  9993,2 45408  53.0446   8.2555 0003475 146.3438  56.1084 15.60481070  5964
STARLINK-1296,45412,53.1619,0.0002541,15.32331149,467.1193969689457,470.5990404472932,1 45412U 20019BE  26093.17453170  .00065478  00000+0  20622-2 0  9999,2 45412  53.1619  15.3774 0002541 147.8765 212.2392 15.32331149333721
STARLINK-1309,45414,53.0665,0.0006352,15.59643727,384.3891052768777,392.9856789846408,1 45414U 20019BG  26093.01830789  .00143145  00000+0  17366-2 0  9998,2 45414  53.0665   5.6587 0006352 125.7270 234.4334 15.59643727333827
STARLINK-1316,45415,53.1587,0.0001694,15.32411358,467.4604537032146,469.780135074554,1 45415U 20019BH  26093.74143980  .00071744  00000+0  22510-2 0  9991,2 45415  53.1587  12.7837 0001694 176.1064 183.9952 15.32411358333833
STARLINK-1286,45417,53.0501,0.0003678,15.52933085,405.6715564239594,410.6635620577372,1 45417U 20019BK  26093.78792519  .00059468  00000+0  93962-3 0  9994,2 45417  53.0501   9.9530 0003678 128.2531 231.8810 15.52933085334126
STARLINK-1308,45419,53.0537,0.000641,15.55264754,397.03745894086023,405.72880374924443,1 45419U 20019BM  26093.84683962  .00082789  00000+0  11949-2 0  9990,2 45419  53.0537  30.8740 0006410 117.9605 242.2055 15.55264754333586
STARLINK-1329,45531,53.0455,2.92e-05,15.65933439,370.3584742826306,370.7525979267384,1 45531U 20025A   26093.86254620  .00087118  00000+0  83530-3 0  9996,2 45531  53.0455 318.4907 0000292 186.8998 173.2013 15.65933439329386
STARLINK-1338,45532,53.049,0.0003528,15.59113884,387.8325024428477,392.6082554094173,1 45532U 20025B   26093.86621303  .00157240  00000+0  19433-2 0  9997,2 45532  53.0490 322.6606 0003528 113.2407 246.8977 15.59113884329320
STARLINK-1350,45535,53.0717,0.0001749,15.36793852,454.402224886383,456.79266519525754,1 45535U 20025E   26093.76930493  .00021396  00000+0  59540-3 0  9998,2 45535  53.0717 275.3012 0001749 115.2044 244.9140 15.36793852330015
STARLINK-1362,45538,53.1613,0.0001154,15.30868676,472.42860367164303,474.00989669418595,1 45538U 20025H   26093.86380463 -.00136460  00000+0 -45836-2 0  9991,2 45538  53.1613 344.0281 0001154  94.4821 265.6312 15.30868676329039
STARLINK-1368,45540,53.1616,0.0001302,15.30197208,474.3310983158972,476.1157133655788,1 45540U 20025K   26093.87701315 -.00000098  00000+0  88119-5 0  9998,2 45540  53.1616 344.3325 0001302  98.9840 261.1308 15.30197208329023
STARLINK-1371,45542,53.0509,0.0001299,15.51302558,412.0398204497533,413.8041375724997,1 45542U 20025M   26093.65071065  .00096399  00000+0  16027-2 0  9992,2 45542  53.0509 329.8069 0001299 167.1831 192.9210 15.51302558329204
STARLINK-1372,45543,53.1596,0.0001479,15.30221134,474.13836639267083,476.16556926935573,1 45543U 20025N   26093.85377722  .00008478  00000+0  29784-3 0  9990,2 45543  53.1596 344.1407 0001479 110.3264 249.7895 15.30221134328125
STARLINK-1373,45544,53.049,0.0003697,15.55393789,398.50192489139954,403.51442483369283,1 45544U 20025P   26093.86002191  .00162143  00000+0  23006-2 0  9997,2 45544  53.0490 327.6486 0003697 121.4225 238.7147 15.55393789329251
STARLINK-1327,45555,53.0452,0.0005538,15.58372041,388.6186958419876,396.11770740330576,1 45555U 20025AA  26093.76086301  .00059566  00000+0  77011-3 0  9993,2 45555  53.0452 305.1613 0005538 158.0522 202.0728 15.58372041329559
STARLINK-1356,45564,53.0492,0.0004305,15.48803947,417.297115076095,423.15050373299164,1 45564U 20025AK  26093.86595987  .00131640  00000+0  23763-2 0  9997,2 45564  53.0492 313.6370 0004305 137.7601 222.3739 15.48803947329448
STARLINK-1357,45565,53.0482,0.0004223,15.6098391,381.9577381313338,387.66972631977205,1 45565U 20025AL  26093.83335647  .00178453  00000+0  20473-2 0  9998,2 45565  53.0482 275.8717 0004223 236.4216 349.7076 15.60983910  5903
STARLINK-1361,45567,53.0484,0.0005981,15.51978395,406.88975664882946,415.0108628887747,1 45567U 20025AN  26093.83947791  .00119533  00000+0  19314-2 0  9995,2 45567  53.0484 313.2615 0005981 122.1806 237.9784 15.51978395329453
STARLINK-1363,45568,53.0383,0.0003144,15.83715082,317.83932216004723,322.05107624690663,1 45568U 20025AP  26093.83335647  .00230463  00000+0  99845-3 0  9991,2 45568  53.0383 271.5403 0003144 160.0214 330.7574 15.83715082  6027
STARLINK-1366,45569,53.0388,0.0003666,15.82219348,321.70877668915637,326.62290513211155,1 45569U 20025AQ  26093.83335647  .00217590  00000+0  10129-2 0  9995,2 45569  53.0388 272.5344 0003666 157.2066 142.1754 15.82219348  6028
STARLINK-1376,45570,53.1589,0.0001826,15.32471983,467.18953526050973,469.68990507871604,1 45570U 20025AR  26093.85080030  .00101736  00000+0  31683-2 0  9994,2 45570  53.1589 320.7783 0001826 192.8520 167.2435 15.32471983329351
STARLINK-1320,45572,53.0474,0.0003712,15.73048284,347.69320225177853,352.6883127789579,1 45572U 20025AT  26093.62188605  .00128857  00000+0  91404-3 0  9999,2 45572  53.0474 222.3271 0003712 102.7826 257.3607 15.73048284330723
STARLINK-1321,45573,53.0478,0.0003315,15.52812398,406.26940627383647,410.7689593230316,1 45573U 20025AU  26093.76771465  .00118842  00000+0  18645-2 0  9995,2 45573  53.0478 298.0555 0003315 171.5926 188.5140 15.52812398329353
STARLINK-1331,45578,53.0516,0.0005013,15.52618096,405.6829459941282,412.487815152891,1 45578U 20025AZ  26093.84113156  .00137311  00000+0  21627-2 0  9992,2 45578  53.0516 304.4044 0005013 188.5835 171.5089 15.52618096329588
STARLINK-1333,45580,53.1597,0.000128,15.30224338,474.2651817380438,476.01962126482795,1 45580U 20025BB  26093.77422562  .00010810  00000+0  37628-3 0  9994,2 45580  53.1597 321.2941 0001280  87.2364 272.8783 15.30224338329346
STARLINK-1335,45581,53.1566,0.0001186,15.29366578,476.89154445605254,478.5177500947857,1 45581U 20025BC  26093.86296860  .00001970  00000+0  80566-4 0  9992,2 45581  53.1566 318.2605 0001186  90.4483 269.6654 15.29366578329385
STARLINK-1337,45582,53.0507,0.0004766,15.63261664,375.0227299923936,381.4629112374041,1 45582U 20025BD  26093.83335647  .00177827  00000+0  18676-2 0  9993,2 45582  53.0507 299.2305 0004766 200.9896  25.6176 15.63261664  5960
STARLINK-1347,45586,53.0417,0.0002077,15.59354685,388.1179222917908,390.9292084906556,1 45586U 20025BH  26093.83335647  .00210677  00000+0  25611-2 0  9995,2 45586  53.0417 267.6117 0002077 185.3045  83.5248 15.59354685  5907
STARLINK-1364,45589,53.0492,0.0006289,15.54083296,400.5528837185284,409.08448537855384,1 45589U 20025BL  26093.87088684  .00143877  00000+0  21464-2 0  9997,2 45589  53.0492 302.0509 0006289 158.3536 201.7741 15.54083296329606
STARLINK-1365,45590,53.0523,0.0004336,15.49332885,415.7293285522346,421.6235251560038,1 45590U 20025BM  26093.86001318  .00096537  00000+0  17204-2 0  9994,2 45590  53.0523 333.2643 0004336 145.6280 214.5009 15.49332885329181
STARLINK-1443,45660,53.1358,0.0002635,15.27426949,481.6993807551944,485.31546736667497,1 45660U 20035D   26093.86099409  .00071976  00000+0  26330-2 0  9991,2 45660  53.1358 308.6341 0002635 158.9396 201.1712 15.27426949322606
STARLINK-1446,45663,53.0245,0.0002187,15.4401052,432.79713871206786,435.776892976598,1 45663U 20035G   26093.67668894  .00033655  00000+0  73246-3 0  9994,2 45663  53.0245 240.5882 0002187  10.5366 349.5685 15.44010520323531
STARLINK-1448,45665,53.0476,0.0006375,15.5772874,389.914715097726,398.5494857007352,1 45665U 20035J   26093.83335647  .00187909  00000+0  24348-2 0  9991,2 45665  53.0476 291.1901 0006375 188.6648  96.0398 15.57728740  5947
STARLINK-1451,45668,53.0529,0.000172,15.11402372,530.7337799967572,533.1108403994649,1 45668U 20035M   26093.88641416  .00034690  00000+0  20382-2 0  9995,2 45668  53.0529 312.1886 0001720 104.2651 255.8531 15.11402372322555
STARLINK-1452,45669,53.0292,0.0003771,15.48829286,417.58602739979415,422.7132951997464,1 45669U 20035N   26093.83335647  .00116015  00000+0  20976-2 0  9998,2 45669  53.0292 261.5705 0003771 147.4594 336.2208 15.48829286  5777
STARLINK-1453,45670,53.0446,0.0001791,15.58254771,391.4952255353537,393.9205421727502,1 45670U 20035P   26093.83335647  .00247222  00000+0  31173-2 0  9996,2 45670  53.0446 251.7192 0001791 137.5994 224.4261 15.58254771  5943
STARLINK-1454,45671,53.0473,0.000599,15.56347404,394.1796692063126,402.29776731678976,1 45671U 20035Q   26093.83335647  .00174469  00000+0  23847-2 0  9998,2 45671  53.0473 291.5568 0005990 169.4497 155.4908 15.56347404  5844
STARLINK-1456,45673,53.0475,0.0002861,15.54365416,402.057545494009,405.9382830919676,1 45673U 20035S   26093.79809884  .00141846  00000+0  20962-2 0  9992,2 45673  53.0475 285.4839 0002861 246.0771 113.9939 15.54365416322927
STARLINK-1457,45674,53.0424,0.0002642,15.87002466,308.92502042408796,312.45939777817694,1 45674U 20035T   26093.83335647  .00301828  00000+0  11064-2 0  9990,2 45674  53.0424 255.8121 0002642 201.1669 320.6333 15.87002466  5980
STARLINK-1458,45675,53.0505,0.0005295,15.46581196,423.1328191895809,430.3391796959904,1 45675U 20035U   26093.78325059  .00124542  00000+0  24308-2 0  9992,2 45675  53.0505 296.0661 0005295 182.0429 178.0557 15.46581196322730
STARLINK-1460,45676,53.1585,0.0001326,15.30186139,474.34769620698444,476.1652161515631,1 45676U 20035V   26093.87586067 -.00001925  00000+0 -52922-4 0  9997,2 45676  53.1585 307.9618 0001326  85.3175 274.7977 15.30186139322571
STARLINK-1392,45677,53.1543,0.0001261,15.29345438,476.90329597307755,478.63235517008616,1 45677U 20035W   26093.81690445 -.00003193  00000+0 -98380-4 0  9995,2 45677  53.1543 308.1890 0001261  87.7340 272.3804 15.29345438322603
STARLINK-1394,45679,53.0465,0.0004299,15.54408072,400.95825056200283,406.78942347967313,1 45679U 20035Y   26093.79509382  .00126838  00000+0  18755-2 0  9999,2 45679  53.0465 275.7223 0004299 249.7419 110.3129 15.54408072323050
